_id,X,Y,neighborhood_id,neighborhood_name,device_serial,device_connectedto,device_address,device_lat,device_long,device_tags,etl_updatedtimestamp,is_current,org1,org2,inside_outside,landmark,ObjectId
1,,,L_601230550253963851,Mobile WiFi Kit 3,Q3AK-Q4UV-A3YH,MR76-3,,,,[],2024/04/02 07:55:56+00,1,,,,,1
2,,,L_601230550253964019,City Hall Truck,Q3AU-KME9-S2T6,MR-78-1,,,,[],2024/04/02 07:55:58+00,1,,,,,2
3,,,L_601230550253963852,Mobile WiFi Kit 4,Q2ZY-UMFL-3SV4,MG41-4,,,,[],2024/04/02 07:55:57+00,1,,,,,3
4,-71.0639761729006,42.3559889328712,N_568579452955527921,Parks,Q3AK-CQWK-ZYPY,PARKS-COMMON-AP8,Boston Common,42.3559889328712,-71.0639761729006,[],2024/04/02 07:55:59+00,1,,,,,4
5,-71.1174785831756,42.3158788382307,N_568579452955527921,Parks,Q2CK-7CSR-NUQK,PARKS-JAMAICAPOND-AP2,"507 Jamaicaway, Jamaica Plain, MA - bandstand",42.3158788382307,-71.1174785831756,"['Jamaica-Pond', 'Outside']",2024/04/02 07:55:59+00,1,,,,Jamaica Pond Outside,5
6,-71.0977575987968,42.3184116635137,N_579275502070532581,Roxbury,Q2CK-CX6Z-DWFB,,"1870 Columbus Ave., Roxbury, MA",42.3184116635137,-71.0977575987968,"['BFD', 'Engine-42', 'Outside']",2024/04/02 07:56:03+00,1,BFD,,,Engine 42 Outside,6
7,-71.075406793306,42.309056987344,N_579275502070532581,Roxbury,Q2CK-74V2-BS4Q,ROX-FREDERICK-AP1,"270 Columbia Rd., Dorchester, MA",42.309056987344,-71.075406793306,"['BPS', 'Frederick-Pilot-School', 'Outside']",2024/04/02 07:56:03+00,1,BPS,,,Frederick Pilot School Outside,7
8,-71.1174785831756,42.3158788382307,N_568579452955527921,Parks,Q2CK-7ANU-RF72,PARKS-JAMAICAPOND-AP1,"507 Jamaicaway, Jamaica Plain, MA - boat house",42.3158788382307,-71.1174785831756,"['Jamaica-Pond', 'Outside']",2024/04/02 07:55:59+00,1,,,,Jamaica Pond Outside,8
9,-71.0763062071055,42.3109767032681,N_579275502070532581,Roxbury,Q2CK-5W3E-RVCM,ROX-MLKSCHOOL-AP3,"77 Lawrence Ave., Roxbury, MA",42.3109767032681,-71.0763062071055,"['BPS', 'MLK', 'Outside']",2024/04/02 07:56:03+00,1,BPS,,,MLK Outside,9
10,-71.0675805917259,42.3147786635241,N_568579452955534204,Dorchester,Q2CK-CVPA-TEUV,DOT-BPL-AP2,"500 Columbia Rd., Dorchester, MA",42.3147786635241,-71.0675805917259,"['BPL', 'Outside', 'Uphams-Corner-Branch']",2024/04/02 07:55:59+00,1,BPL,,,Outside Uphams Corner Branch,10
11,-71.0908800882127,42.3319176883679,N_579275502070532581,Roxbury,Q2CK-SSY2-PBYW,ROX-Madison Park-HS-AP1,"75 Malcolm X Blvd, Boston, MA 02120",42.3319176883679,-71.0908800882127,['recently-added'],2024/04/02 07:56:03+00,1,,,,,11
12,-71.0754752671346,42.3182423377658,N_579275502070532581,Roxbury,Q2CK-5PKB-8LG8,ROX-WINTHROP-AP1,"35 Brookford St., Roxbury, MA",42.3182423377658,-71.0754752671346,"['BPS', 'Outside', 'Winthrop-School']",2024/04/02 07:56:03+00,1,BPS,,,Outside Winthrop School,12
13,-71.0638272770378,42.3554355018542,N_601230550253961607,Maintenance,Q2CK-N8A5-VD4F,PARKS-COMMONWEST-AP3,"139 Tremont St, Boston, MA 02111",42.3554355018542,-71.0638272770378,['recently-added'],2024/04/02 07:56:06+00,1,,,,,13
14,-71.0828389,42.3098612,N_579275502070532581,Roxbury,Q2CK-CYFR-SFMF,ROX-GROVEHALL-AP4,"683 Warren St., Roxbury, MA",42.3098612,-71.0828389,"['BPL', 'Grove-Hall', 'Outside']",2024/04/02 07:56:03+00,1,BPL,,,Grove Hall Outside,14
15,-71.0540288686752,42.3603197641085,N_601230550253961310,Downtown Boston - City Hall - Quincy Market,Q3AE-ARNB-HFAK,DT-QUINCYMARKET-AP2,"Faneuil Hall Marketplace
Boston MA 02201",42.3603197641085,-71.0540288686752,[],2024/04/02 07:56:04+00,1,,,,,15
16,-71.07677,42.32673,N_601230550253962329,BCYF Indoor,Q2LD-HLM8-574W,BCYF-Vine Street-Senior Lounge 222 AP1,"339 Dudley Street. Boston, MA",42.32673,-71.07677,[],2024/04/02 07:56:08+00,1,,,,,16
17,-71.0598546266556,42.3603594029691,N_601230550253961310,Downtown Boston - City Hall - Quincy Market,Q3AE-HJRQ-D68Q,DT-CITYHALL-GUARDSHACK,One City Hall Sq Boston MA 02201,42.3603594029692,-71.0598546266556,[],2024/04/02 07:56:04+00,1,,,,,17
18,-71.0638272770378,42.3554355018542,N_601230550253961607,Maintenance,Q2CK-MP93-YDN3,PARKS-COMMONEAST-AP1,"139 Tremont St, Boston, MA 02111",42.3554355018542,-71.0638272770378,"['Boston-Common', 'recently-added']",2024/04/02 07:56:06+00,1,,,,Boston Common,18
19,-71.0638272770378,42.3554355018542,N_601230550253961607,Maintenance,Q2CK-NK2U-62SL,PARKS-COMMONEAST-AP2,"139 Tremont St, Boston, MA 02111",42.3554355018542,-71.0638272770378,"['Boston-Common', 'recently-added']",2024/04/02 07:56:06+00,1,,,,Boston Common,19
20,,,L_601230550253963850,Mobile WiFi Kit 2,Q2ZY-5UCW-5LFZ,MG41-2,,,,[],2024/04/02 07:55:55+00,1,,,,,20
21,-71.0638272770378,42.3554355018542,N_601230550253961607,Maintenance,Q2EK-WDLM-65C6,PARKS-COMMONEAST-AP4 ,"139 Tremont St, Boston, MA 02111",42.3554355018542,-71.0638272770378,"['Boston-Common', 'recently-added']",2024/04/02 07:56:06+00,1,,,,Boston Common,21
22,-71.0639761729006,42.3559889328712,N_568579452955527921,Parks,Q3AK-CRWB-RXVL,PARKS-COMMON-AP3,Boston Common,42.3559889328712,-71.0639761729006,[],2024/04/02 07:55:59+00,1,,,,,22
23,-71.0836630325452,42.3301489235268,N_601230550253961809,Bolling,Q2FD-3YYZ-LW7E,BOL-PUBLOBBY-AP1,"2300 Washington St., Roxbury 02119",42.3301489235268,-71.0836630325452,"['Bolling', 'Inside']",2024/04/02 07:56:07+00,1,,,Inside,Bolling,23
24,-71.0809287428856,42.307582472509,N_579275502070532581,Roxbury,Q2CK-5HAA-H694,ROX-GROVEHALL-AP2,"41 Geneva Ave., Roxbury, MA",42.307582472509,-71.0809287428856,"['BPL', 'Grove-Hall', 'Outside']",2024/04/02 07:56:03+00,1,BPL,,,Grove Hall Outside,24
25,-71.0836630325452,42.3301489235268,N_601230550253961809,Bolling,Q2FD-VT33-84WZ,BOL-ROOFDECK-AP1,"2300 Washington St., Roxbury 02119",42.3301489235268,-71.0836630325452,"['Bolling', 'Inside']",2024/04/02 07:56:07+00,1,,,Inside,Bolling,25
26,-71.0993305996779,42.3192186624804,N_579275502070532581,Roxbury,Q2CK-GUWZ-2YNU,ROX-BRAGDON-AP1,"85 Bragdon St., Roxbury MA",42.3192186624804,-71.0993305996779,"['EOC', 'Outside']",2024/04/02 07:56:03+00,1,,,,EOC Outside,26
27,-71.0659605900958,42.315958662778,N_601230550253965256,Strand Theatre - Internal,Q2KD-JUWB-SVBB,Strand_Camera room theatre wall ,"543 Columbia Rd, Boston, MA 02125",42.315958662778,-71.0659605900958,['Inside'],2024/04/02 07:56:10+00,1,,,Inside,,27
28,-71.0659605900958,42.315958662778,N_601230550253965256,Strand Theatre - Internal,Q2KD-V49N-RSA2,Strand_Orchestra lobby_AP1,"543 Columbia Rd, Boston, MA 02125",42.315958662778,-71.0659605900958,['Inside'],2024/04/02 07:56:10+00,1,,,Inside,,28
29,-71.0659605900958,42.315958662778,N_601230550253965256,Strand Theatre - Internal,Q2KD-363A-MRZV,Strand_Camera room office left,"543 Columbia Rd, Boston, MA 02125",42.315958662778,-71.0659605900958,['Inside'],2024/04/02 07:56:10+00,1,,,Inside,,29
30,-71.0659605900958,42.315958662778,N_601230550253965256,Strand Theatre - Internal,Q2KD-6HAC-QJAE,Strand_Orchestra lobby_AP2,"543 Columbia Rd, Boston, MA 02125",42.315958662778,-71.0659605900958,['Inside'],2024/04/02 07:56:10+00,1,,,Inside,,30
31,-71.0659605900958,42.315958662778,N_601230550253965256,Strand Theatre - Internal,Q2KD-4CVV-PPU5,Strand_Orchestra lobby_AP3,"543 Columbia Rd, Boston, MA 02125",42.315958662778,-71.0659605900958,['Inside'],2024/04/02 07:56:10+00,1,,,Inside,,31
32,-71.0659605900958,42.315958662778,N_601230550253965256,Strand Theatre - Internal,Q2KD-6H83-WZ3E,Strand_Box Office ceiling,"543 Columbia Rd, Boston, MA 02125",42.315958662778,-71.0659605900958,['Inside'],2024/04/02 07:56:10+00,1,,,Inside,,32
33,-71.0659605900958,42.315958662778,N_601230550253965256,Strand Theatre - Internal,Q2KD-4MAV-QUR8,Strand_Camera room office right,"543 Columbia Rd, Boston, MA 02125",42.315958662778,-71.0659605900958,['Inside'],2024/04/02 07:56:10+00,1,,,Inside,,33
34,-71.0659605900958,42.315958662778,N_601230550253965256,Strand Theatre - Internal,Q2KD-T5KV-QQRN,Strand_Stage Right ,"543 Columbia Rd, Boston, MA 02125",42.315958662778,-71.0659605900958,['Inside'],2024/04/02 07:56:10+00,1,,,Inside,,34
35,-71.0659605900958,42.315958662778,N_601230550253965256,Strand Theatre - Internal,Q2KD-DQJU-LYTD,Strand_Stage Left,"543 Columbia Rd, Boston, MA 02125",42.315958662778,-71.0659605900958,['Inside'],2024/04/02 07:56:10+00,1,,,Inside,,35
36,-71.0829605987571,42.3310986653424,N_601230550253966449,OPAT,Q3AC-GXG6-6WZR,OPAT-AP1,2201 Washington St Roxbury MA 02118,42.3310986653424,-71.0829605987571,[],2024/04/02 07:56:10+00,1,,,,,36
37,-71.0059505781137,42.3860786782013,N_601230550253966604,East Boston Senior Center,Q3AB-3QKN-ZC2L,EBSC-AP-2,"18 Barnes Avenue, East Boston, MA 02128",42.3860786782013,-71.0059505781137,"['Inside', 'employee']",2024/04/02 07:56:11+00,1,,,Inside,employee,37
38,-71.0059505781137,42.3860786782013,N_601230550253966604,East Boston Senior Center,Q3AB-3PP3-JU4W,EBSC-AP-1,"18 Barnes Avenue, East Boston, MA 02128",42.3860786782013,-71.0059505781137,"['Inside', 'employee']",2024/04/02 07:56:11+00,1,,,Inside,employee,38
39,-71.0059505781137,42.3860786782013,N_601230550253966604,East Boston Senior Center,Q3AB-384Z-M6EA,EBSC-AP-4,"18 Barnes Avenue, East Boston, MA 02128",42.3860786782013,-71.0059505781137,"['Inside', 'employee']",2024/04/02 07:56:11+00,1,,,Inside,employee,39
40,-71.0059505781137,42.3860786782013,N_601230550253966604,East Boston Senior Center,Q3AB-SYXF-PX75,EBSC-AP-3,"18 Barnes Avenue, East Boston, MA 02128",42.3860786782013,-71.0059505781137,"['Inside', 'employee']",2024/04/02 07:56:11+00,1,,,Inside,employee,40
41,-71.0711796721667,42.2997765683813,N_568579452955534204,Dorchester,Q2CK-CJQV-TSTH,DOT-MARSHALL-AP2,"35 Westville St., Dorchester, MA",42.2997765683813,-71.0711796721667,"['BPS', 'Marshall-School', 'Outside', 'UP-Academy']",2024/04/02 07:55:59+00,1,BPS,,,Marshall School Outside UP Academy,41
42,-71.0756002595557,42.2967885000962,N_568579452955534204,Dorchester,Q2CK-9ECJ-KEVB,DOT-HOLMES-AP2,"40 School St, Dorchester",42.2967885000962,-71.0756002595557,"['BPS', 'Holmes-Elementary-School', 'Outside']",2024/04/02 07:55:59+00,1,BPS,,,Holmes Elementary School Outside,42
43,-71.0632356684482,42.3183362717841,N_568579452955534204,Dorchester,Q2CK-H48M-P2E9,DOT-BFD21-AP3,"641 Columbia Rd., Dorchester, MA",42.3183362717841,-71.0632356684482,"['BFD', 'Engine-21', 'Outside']",2024/04/02 07:55:59+00,1,BFD,,,Engine 21 Outside,43
44,-71.0738590190213,42.3056181301162,N_568579452955534204,Dorchester,Q2CK-ERFW-VHQX,DOT-HOLLAND-AP2,"85 Olney St., Dorchester, MA",42.3056181301162,-71.0738590190213,"['BCYF', 'Holland-Comm-Center', 'Outside']",2024/04/02 07:55:59+00,1,BCYF,,,Holland Comm Center Outside,44
45,-71.0632356684482,42.3183362717841,N_568579452955534204,Dorchester,Q2CK-G9M2-VTK4,DOT-BFD21-AP2,"641 Columbia Rd., Dorchester, MA",42.3183362717841,-71.0632356684482,"['BFD', 'Engine-21', 'Outside']",2024/04/02 07:55:59+00,1,BFD,,,Engine 21 Outside,45
46,-71.0675805917259,42.3147786635241,N_568579452955534204,Dorchester,Q2CK-U4G7-7P78,DOT-BPL-AP4,"500 Columbia Rd., Dorchester, MA",42.3147786635241,-71.0675805917259,"['BPL', 'Outside', 'Uphams-Corner-Branch', 'recently-added']",2024/04/02 07:55:59+00,1,BPL,,,Outside Uphams Corner Branch,46
47,-71.0675805917259,42.3147786635241,N_568579452955534204,Dorchester,Q2CK-CXHG-U3Q7,DOT-BPL-AP3,"500 Columbia Rd., Dorchester, MA",42.3147786635241,-71.0675805917259,"['BPL', 'Outside', 'Uphams-Corner-Branch']",2024/04/02 07:55:59+00,1,BPL,,,Outside Uphams Corner Branch,47
48,-71.0625870522593,42.3079400655335,N_568579452955534204,Dorchester,Q2CK-F72Z-RK25,DOT-MATHER-AP1,"1 Parish St., Dorchester, MA",42.3079400655335,-71.0625870522593,"['BPS', 'Mather-School', 'Outside']",2024/04/02 07:55:59+00,1,BPS,,,Mather School Outside,48
49,-71.0806547945235,42.2965606820921,N_568579452955534204,Dorchester,Q2CK-HPSU-2K3Q,DOT-GREENWOOD-AP2,"189 Glenway Street, Dorchester, MA",42.2965606820921,-71.0806547945235,"['BPS', 'Greenwood-School', 'Outside']",2024/04/02 07:55:59+00,1,BPS,,,Greenwood School Outside,49
50,-71.0711796721667,42.2997765683813,N_568579452955534204,Dorchester,Q2CK-649C-9H26,DOT-MARSHALL-AP1,"35 Westville St., Dorchester, MA",42.2997765683813,-71.0711796721667,"['BPS', 'Marshall-School', 'Outside', 'UP-Academy']",2024/04/02 07:55:59+00,1,BPS,,,Marshall School Outside UP Academy,50
51,-71.0738590190213,42.3056181301162,N_568579452955534204,Dorchester,Q2CK-GMBW-WDLD,DOT-HOLLAND-AP1,"85 Olney St., Dorchester, MA",42.3056181301162,-71.0738590190213,"['BCYF', 'Holland-Comm-Center', 'Outside']",2024/04/02 07:55:59+00,1,BCYF,,,Holland Comm Center Outside,51
52,-71.0675805917259,42.3147786635241,N_568579452955534204,Dorchester,Q2CK-J2D4-6Y8J,DOT-BPL-AP6,"500 Columbia road, Dorchester, ma",42.3147786635241,-71.0675805917259,"['BPL', 'Outside', 'Uphams-Corner-Branch']",2024/04/02 07:55:59+00,1,BPL,,,Outside Uphams Corner Branch,52
53,-71.0492044416863,42.2942127699993,N_568579452955534204,Dorchester,Q2CK-S8TK-5BFB,DOT-MURPHY-AP1,"1 Worrell St, Dorchester, MA 02122",42.2942127699993,-71.0492044416863,"['BPS', 'Murphy-School', 'Outside']",2024/04/02 07:55:59+00,1,BPS,,,Murphy School Outside,53
54,-71.0632356684482,42.3183362717841,N_568579452955534204,Dorchester,Q2CK-ZRF5-JNQU,DOT-BFD21-AP1,"641 Columbia Rd., Dorchester, MA",42.3183362717841,-71.0632356684482,"['BFD', 'Engine-21', 'Outside']",2024/04/02 07:55:59+00,1,BFD,,,Engine 21 Outside,54
55,-71.0675805917259,42.3147786635241,N_568579452955534204,Dorchester,Q2CK-CRWS-U8UK,DOT-BPL-AP1,"500 Columbia Rd., Dorchester, MA",42.3147786635241,-71.0675805917259,"['BPL', 'Outside', 'Uphams-Corner-Branch']",2024/04/02 07:55:59+00,1,BPL,,,Outside Uphams Corner Branch,55
56,-71.0829605987571,42.3310986653424,N_601230550253966449,OPAT,Q3AC-ZNTZ-AXMN,OPAT-AP2,2201 Washington St Roxbury MA 02118,42.3310986653424,-71.0829605987571,[],2024/04/02 07:56:10+00,1,,,,,56
57,-71.0059505781137,42.3860786782013,N_601230550253966604,East Boston Senior Center,Q3AB-4Q4V-8E7P,EBSC-AP-5,"18 Barnes Avenue, East Boston, MA 02128",42.3860786782013,-71.0059505781137,"['Inside', 'employee']",2024/04/02 07:56:11+00,1,,,Inside,employee,57
58,-71.0711755975533,42.303859430364,N_568579452955534204,Dorchester,Q2CK-N5NK-M8VH,DOT-MATHER-AP2,"1 Meeting House Hill, Dorchester",42.303859430364,-71.0711755975533,['recently-added'],2024/04/02 07:55:59+00,1,,,,,58
59,-71.0688205939785,42.3129686634185,N_568579452955534204,Dorchester,Q2CK-FQLH-FDJH,DOT-BPL-AP5,"63 Glendale St, Dorchester, MA",42.3129686634185,-71.0688205939785,"['BPL', 'Outside', 'Uphams-Corner-Branch']",2024/04/02 07:55:59+00,1,BPL,,,Outside Uphams Corner Branch,59
60,-71.0756002595557,42.2967885000962,N_568579452955534204,Dorchester,Q2CK-H64X-BT93,DOT-HOLMES-AP1,"40 School St., Dorchester, MA",42.2967885000962,-71.0756002595557,"['BPS', 'Holmes-Elementary-School', 'Outside']",2024/04/02 07:55:59+00,1,BPS,,,Holmes Elementary School Outside,60
61,-71.0806547945235,42.2965606820921,N_568579452955534204,Dorchester,Q2CK-HALC-MWBH,DOT-GREENWOOD-AP1,"189 Glenway St., Dorchester, MA",42.2965606820921,-71.0806547945235,"['BPS', 'Greenwood-School', 'Outside']",2024/04/02 07:55:59+00,1,BPS,,,Greenwood School Outside,61
62,-71.0301987441018,42.3321207672545,N_568579452955537848,South Boston,Q2CK-LL7D-DRFS,SB-PERRY-AP2,"745 East 7th St., South Boston, MA",42.3321207672545,-71.0301987441018,"['BPS', 'Outside', 'Perry-School']",2024/04/02 07:56:00+00,1,BPS,,,Outside Perry School,62
63,-71.0301987441018,42.3321207672545,N_568579452955537848,South Boston,Q2CK-L6R4-HJGB,SB-PERRY-AP1,"745 E 7th St, South Boston, MA 02127",42.3321207672545,-71.0301987441018,['recently-added'],2024/04/02 07:56:00+00,1,,,,,63
64,-71.0448905869042,42.3328686671197,N_568579452955537848,South Boston,Q2CK-LEG8-FAFN,SB-HIGHSCHOOL-AP2,"95 G St., South Boston, MA",42.3328686671197,-71.0448905869042,['recently-added'],2024/04/02 07:56:00+00,1,,,,,64
65,-71.0448905869042,42.3328686671197,N_568579452955537848,South Boston,Q2CK-LQCX-HR7J,SB-HIGHSCHOOL-AP1,95 G Street,42.3328686671197,-71.0448905869042,['recently-added'],2024/04/02 07:56:00+00,1,,,,,65
66,-71.0301987441018,42.3321207672545,N_568579452955537848,South Boston,Q2CK-NLQZ-E2SP,SB-PERRY-AP3,"745 E 7th St, South Boston, MA 02127",42.3321207672545,-71.0301987441018,"['BPS', 'Outside', 'Perry-School']",2024/04/02 07:56:00+00,1,BPS,,,Outside Perry School,66
67,-71.0448905869042,42.3328686671197,N_568579452955537848,South Boston,Q2CK-D4R6-5UWB,SB-HIGHSCHOOL-AP3,"95 G St., South Boston, MA",42.3328686671197,-71.0448905869042,"['Outside', 'South-Boston-High-School']",2024/04/02 07:56:00+00,1,,,,Outside South Boston High School,67
68,-71.0610705944453,42.3801186758107,N_568579452955538062,Charlestown,Q2CK-SNTB-WJWA,CHL-HIGHSCHOOL-AP2,"240 Medford St, Charlestown, MA 02129",42.3801186758107,-71.0610705944453,"['BCYF-Grant', 'BPS', 'Charlestown-High-School', 'Outside']",2024/04/02 07:56:01+00,1,BPS,,,Charlestown High School Outside,68
69,-71.0610705944453,42.3801186758107,N_568579452955538062,Charlestown,Q2CK-V3LS-5V65,CHL-BCYF-AP2,"240 Medford St, Charlestown, MA 02129",42.3801186758107,-71.0610705944453,"['BCYF', 'BCYF-Grant', 'Charlestown-Athletic-Building', 'Outside']",2024/04/02 07:56:01+00,1,BCYF,,,Charlestown Athletic Building Outside,69
70,-71.0610705944453,42.3801186758107,N_568579452955538062,Charlestown,Q2CK-CWUY-RBGW,CHL-HIGHSCHOOL-AP1,"240 Medford St., Charlestown, MA",42.3801186758107,-71.0610705944453,"['BPS', 'Charlestown-High-School', 'Outside']",2024/04/02 07:56:01+00,1,BPS,,,Charlestown High School Outside,70
71,-71.1243063957897,42.2557560845543,N_568579452955538316,Hyde Park,Q2CK-BUXF-V896,HP-BPDE18-AP3,"1276 River St., Hyde Park, MA - Hyde Park Ave & River St",42.2557560845543,-71.1243063957897,"['BPD', 'District', 'E-18', 'Outside']",2024/04/02 07:56:01+00,1,BPD,,,District E 18 Outside,71
72,-71.1210815530909,42.2563069435643,N_568579452955538316,Hyde Park,Q3AK-D639-ZQ76,HP-BCYF-AP2,"1179 River Street, Hyde Park, MA02136",42.2563069435643,-71.1210815530909,[],2024/04/02 07:56:01+00,1,,,,,72
73,-71.0901645617862,42.3224337457746,N_601230550253962329,BCYF Indoor,Q3AK-E7TV-XMVL,BCYF-Shelburne-MR76-AP2,"2730 Washington St Boston, MA 02119",42.3224337457746,-71.0901645617862,[],2024/04/02 07:56:08+00,1,,,,,73
74,-71.07677,42.32673,N_601230550253962329,BCYF Indoor,Q2LD-DSEF-JAHC,BCYF-Vine Street- Classroom B,"339 Dudley Street. Boston, MA",42.32673,-71.07677,[],2024/04/02 07:56:08+00,1,,,,,74
75,-71.1144214275456,42.3105749822276,N_601230550253962845,Jamaica Plain,Q2CK-NLUC-P9T6,JP-BFDE28-AP2,"746 Centre Street, Jamaica Plain",42.3105749822276,-71.1144214275456,['recently-added'],2024/04/02 07:56:09+00,1,,,,,75
76,-71.1198806041961,42.2551286509519,N_568579452955538316,Hyde Park,Q2AK-YCNF-9V29,HP-BFD48-AP1,"60 Fairmont Ave., Hyde Park, MA",42.2551286509519,-71.1198806041961,"['BFD', 'Engine-48', 'Outside']",2024/04/02 07:56:01+00,1,BFD,,,Engine 48 Outside,76
77,-71.1277009143321,42.2865140418411,N_601230550253962329,BCYF Indoor,Q2JD-XLEC-WCDN,BCYF-Roslindale-AP3,"6 Cummins Highway, Roslindale, MA - room 205 teen room",42.2865140418411,-71.1277009143321,"['BCYF', 'BCYF-Grant', 'Inside', 'Roslindale']",2024/04/02 07:56:08+00,1,BCYF,,Inside,Roslindale,77
78,-71.1144214275456,42.3105749822276,N_601230550253962845,Jamaica Plain,Q2CK-NLSB-E9TE,JP-BFDE28-AP3,"746 Centre Street, Jamaica Plain",42.3105749822276,-71.1144214275456,['recently-added'],2024/04/02 07:56:09+00,1,,,,,78
79,-71.0581405914467,42.3601086714318,N_601230550253966673,Downtown Boston - City Hall Plaza and Pavilion,Q3AE-TF7U-TX4P,AP-MR86-IWF-ROOM,"One City Hall Sq, Pavilion Bld, IWF Room,
Boston, MA 02201",42.3601086714318,-71.0581405914467,['City-Hall'],2024/04/02 07:56:11+00,1,,,,City Hall,79
80,-71.0581405914467,42.3601086714318,N_601230550253966673,Downtown Boston - City Hall Plaza and Pavilion,Q3AE-ZDPZ-2LNE,,"1 City Hall Square, Boston, MA 02201",42.3601086714318,-71.0581405914467,['City-Hall'],2024/04/02 07:56:11+00,1,,,,City Hall,80
81,-71.0581405914467,42.3601086714318,N_601230550253966673,Downtown Boston - City Hall Plaza and Pavilion,Q3AE-QYJ5-RXEJ,AP-MR86-CS-10,"1 City Hall Square, Boston, MA 02201",42.3601086714318,-71.0581405914467,['City-Hall'],2024/04/02 07:56:11+00,1,,,,City Hall,81
82,-71.0581405914467,42.3601086714318,N_601230550253966673,Downtown Boston - City Hall Plaza and Pavilion,Q3AE-95XZ-766Y,,,42.3601086714318,-71.0581405914467,['City-Hall'],2024/04/02 07:56:11+00,1,,,,City Hall,82
83,-71.0581405914467,42.3601086714318,N_601230550253966673,Downtown Boston - City Hall Plaza and Pavilion,Q3AE-BFV5-YGNC,City Hall Pavilion - Interior AP2,"One City Hall Sq, Pavilion Bldg
Boston, MA 02201",42.3601086714318,-71.0581405914467,['City-Hall'],2024/04/02 07:56:11+00,1,,,,City Hall,83
84,-71.0581405914467,42.3601086714318,N_601230550253966673,Downtown Boston - City Hall Plaza and Pavilion,Q3AE-QMTD-57LD,2nd Floor North Entrance,"1 City Hall Plaza, 
Boston, MA  02201",42.3601086714318,-71.0581405914467,['City-Hall'],2024/04/02 07:56:11+00,1,,,,City Hall,84
85,-71.0581405914467,42.3601086714318,N_601230550253966673,Downtown Boston - City Hall Plaza and Pavilion,Q3AE-M6TA-MFWJ,,,42.3601086714318,-71.0581405914467,['City-Hall'],2024/04/02 07:56:11+00,1,,,,City Hall,85
86,-71.0581405914467,42.3601086714318,N_601230550253966673,Downtown Boston - City Hall Plaza and Pavilion,Q3AE-A793-TEM9,,"1 City Hall Plaza, Pavilion
Boston, MA  02201",42.3601086714318,-71.0581405914467,['City-Hall'],2024/04/02 07:56:11+00,1,,,,City Hall,86
87,-71.0581405914467,42.3601086714318,N_601230550253966673,Downtown Boston - City Hall Plaza and Pavilion,Q3AE-R6BQ-D5KN,AP-MR86-CS-27,"1 City Hall Plaza, Pavilion
Boston, MA  02201",42.3601086714318,-71.0581405914467,['City-Hall'],2024/04/02 07:56:11+00,1,,,,City Hall,87
88,-71.0581405914467,42.3601086714318,N_601230550253966673,Downtown Boston - City Hall Plaza and Pavilion,Q3AE-JBPL-DSNV,AP-MR86-CS-23,"1 City Hall Plaza, Pavilion
Boston, MA  02201",42.3601086714318,-71.0581405914467,['City-Hall'],2024/04/02 07:56:11+00,1,,,,City Hall,88
89,-71.0581405914467,42.3601086714318,N_601230550253966673,Downtown Boston - City Hall Plaza and Pavilion,Q3AE-M9YS-PAT8,,"1 City Hall Square, Boston, MA 02201",42.3601086714318,-71.0581405914467,['City-Hall'],2024/04/02 07:56:11+00,1,,,,City Hall,89
90,-71.0581405914467,42.3601086714318,N_601230550253966673,Downtown Boston - City Hall Plaza and Pavilion,Q3AE-E75T-LLQX,AP-MR86-CS-37,"1 City Hall Plaza, Pavilion
Boston, MA  02201",42.3601086714318,-71.0581405914467,['City-Hall'],2024/04/02 07:56:11+00,1,,,,City Hall,90
91,-71.0581405914467,42.3601086714318,N_601230550253966673,Downtown Boston - City Hall Plaza and Pavilion,Q3AE-8YNT-BM6Q,AP-MR86-CS-36?,"1 City Hall Plaza, Pavilion
Boston, MA  02201",42.3601086714318,-71.0581405914467,['City-Hall'],2024/04/02 07:56:11+00,1,,,,City Hall,91
92,-71.0581405914467,42.3601086714318,N_601230550253966673,Downtown Boston - City Hall Plaza and Pavilion,Q3AE-WU87-WVGK,3rd Floor Lobby Entrance,"1 City Hall Plaza, 
Boston, MA  02201",42.3601086714318,-71.0581405914467,['City-Hall'],2024/04/02 07:56:11+00,1,,,,City Hall,92
93,-71.0581405914467,42.3601086714318,N_601230550253966673,Downtown Boston - City Hall Plaza and Pavilion,Q3AE-Q4LQ-6HK3,AP-MR86-CS-09,"1 City Hall Square, Boston, MA 02201",42.3601086714318,-71.0581405914467,['City-Hall'],2024/04/02 07:56:11+00,1,,,,City Hall,93
94,-71.0581405914467,42.3601086714318,N_601230550253966673,Downtown Boston - City Hall Plaza and Pavilion,Q3AE-EETG-KYUS,AP-MR86-CS-31,"1 City Hall Plaza, Pavilion
Boston, MA  02201",42.3601086714318,-71.0581405914467,['City-Hall'],2024/04/02 07:56:11+00,1,,,,City Hall,94
95,-71.0581405914467,42.3601086714318,N_601230550253966673,Downtown Boston - City Hall Plaza and Pavilion,Q3AE-A943-FE9F,City Hall Pavilion - Interior AP1,"One City Hall Sq, Pavilion Bldg
Boston, MA 02201",42.3601086714318,-71.0581405914467,['City-Hall'],2024/04/02 07:56:11+00,1,,,,City Hall,95
96,-71.0581405914467,42.3601086714318,N_601230550253966673,Downtown Boston - City Hall Plaza and Pavilion,Q3AE-JXU4-QPQ3,,"1 City Hall Square, Boston, MA 02201",42.3601086714318,-71.0581405914467,['City-Hall'],2024/04/02 07:56:11+00,1,,,,City Hall,96
97,-71.0351507134259,42.3291223754466,N_601230550253966945,BCYF-Curley,Q3AK-FCMY-RRA3,BCYF-CURLEY-AP10_OutDoor,"1663 Columbia Rd, Boston, MA 02127",42.3291223754466,-71.0351507134259,[],2024/04/02 07:56:12+00,1,,,,,97
98,-71.0351507134259,42.3291223754466,N_601230550253966945,BCYF-Curley,Q3AC-KTSG-GXHF,BCYF-CURLEY-AP2,"1663 Columbia Rd, Boston, MA 02127",42.3291223754466,-71.0351507134259,"['BCYF', 'Inside', 'UXI', 'employee']",2024/04/02 07:56:12+00,1,BCYF,,Inside,UXI employee,98
99,-71.0351507134259,42.3291223754466,N_601230550253966945,BCYF-Curley,Q3AC-7WRL-ZNXJ,BCYF-CURLEY-AP4,"1663 Columbia Rd, Boston, MA 02127",42.3291223754466,-71.0351507134259,"['BCYF', 'Inside', 'UXI', 'employee']",2024/04/02 07:56:12+00,1,BCYF,,Inside,UXI employee,99
100,-71.0351507134259,42.3291223754466,N_601230550253966945,BCYF-Curley,Q3AC-RKPB-2QNG,BCYF-CURLEY-AP1,"1663 Columbia Rd, Boston, MA 02127",42.3291223754466,-71.0351507134259,"['BCYF', 'Inside', 'UXI', 'employee']",2024/04/02 07:56:12+00,1,BCYF,,Inside,UXI employee,100
101,-71.0351507134259,42.3291223754466,N_601230550253966945,BCYF-Curley,Q3AC-2A4K-G5SA,BCYF-CURLEY-AP8,"1663 Columbia Rd, Boston, MA 02127",42.3291223754466,-71.0351507134259,"['BCYF', 'Inside', 'UXI', 'employee']",2024/04/02 07:56:12+00,1,BCYF,,Inside,UXI employee,101
102,-71.0351507134259,42.3291223754466,N_601230550253966945,BCYF-Curley,Q3AC-QE7Y-PC5R,BCYF-CURLEY-AP5,"1663 Columbia Rd, Boston, MA 02127",42.3291223754466,-71.0351507134259,"['BCYF', 'Inside', 'UXI', 'employee']",2024/04/02 07:56:12+00,1,BCYF,,Inside,UXI employee,102
103,-71.0351507134259,42.3291223754466,N_601230550253966945,BCYF-Curley,Q3AC-DCVF-HE6K,BCYF-CURLEY-AP7,"1663 Columbia Rd, Boston, MA 02127",42.3291223754466,-71.0351507134259,"['BCYF', 'Inside', 'UXI', 'employee']",2024/04/02 07:56:12+00,1,BCYF,,Inside,UXI employee,103
104,-71.0351507134259,42.3291223754466,N_601230550253966945,BCYF-Curley,Q3AC-DSVP-2T8U,BCYF-CURLEY-AP6,"1663 Columbia Rd, Boston, MA 02127",42.3291223754466,-71.0351507134259,"['BCYF', 'Inside', 'UXI', 'employee']",2024/04/02 07:56:12+00,1,BCYF,,Inside,UXI employee,104
105,-71.0581405914467,42.3601086714318,N_601230550253966673,Downtown Boston - City Hall Plaza and Pavilion,Q3AE-2F27-DVJ3,AP-MR86-CS-14,"1 City Hall Plaza, Pavilion
Boston, MA  02201",42.3601086714318,-71.0581405914467,['City-Hall'],2024/04/02 07:56:11+00,1,,,,City Hall,105
106,-71.0581405914467,42.3601086714318,N_601230550253966673,Downtown Boston - City Hall Plaza and Pavilion,Q3AE-CANN-4NB2,,"1 City Hall Square, Boston, MA 02201",42.3601086714318,-71.0581405914467,['City-Hall'],2024/04/02 07:56:11+00,1,,,,City Hall,106
107,-71.0351507134259,42.3291223754466,N_601230550253966945,BCYF-Curley,Q3AK-BF9F-PSRG,BCYF-CURLEY-AP9_OutDoor,"1663 Columbia Rd, Boston, MA 02127",42.3291223754466,-71.0351507134259,[],2024/04/02 07:56:12+00,1,,,,,107
108,-71.0351507134259,42.3291223754466,N_601230550253966945,BCYF-Curley,Q3AK-FBJE-35KU,BCYF-CURLEY-AP11_OutDoor,"1663 Columbia Rd, Boston, MA 02127",42.3291223754466,-71.0351507134259,[],2024/04/02 07:56:12+00,1,,,,,108
109,-71.0983,42.33224,L_601230550253962684,YEE Tremont,Q3AK-G3NG-D7KN,BCYF_Tremont_YEE_2nd floor-Multi-Purpose-RM-AP5,"1483 Tremont St, Boston, MA",42.33224,-71.0983,"['DYEE', 'Inside', 'recently-added']",2024/04/02 07:55:44+00,1,DYEE,,Inside,,109
110,,,L_601230550253963851,Mobile WiFi Kit 3,Q2ZY-V6UL-X52X,MG41-3,,,,[],2024/04/02 07:55:56+00,1,,,,,110
111,-71.0351507134259,42.3291223754466,N_601230550253966945,BCYF-Curley,Q3AC-96AP-QJ9X,BCYF-CURLEY-AP3,"1663 Columbia Rd, Boston, MA 02127",42.3291223754466,-71.0351507134259,"['BCYF', 'Inside', 'UXI', 'employee']",2024/04/02 07:56:12+00,1,BCYF,,Inside,UXI employee,111
112,,,L_601230550253963853,Mobile WiFi Kit 5,Q3AK-VPCA-XAXA,MR76-5,,,,[],2024/04/02 07:55:57+00,1,,,,,112
113,,,L_601230550253963853,Mobile WiFi Kit 5,Q2ZY-CKEJ-LDAC,MG41-5,,,,[],2024/04/02 07:55:57+00,1,,,,,113
114,-71.086450598541,42.3231886637714,N_568579452955527921,Parks,Q2DD-4KWV-JRMB,PARKS-FRANKLIN-AP2,"1 Circuit Dr., Roxbury, MA",42.3231886637714,-71.086450598541,"['Franklin-Park', 'Outside']",2024/04/02 07:55:59+00,1,,,,Franklin Park Outside,114
115,-71.1169910430908,42.2791186669152,N_568579452955527921,Parks,Q2AK-U4TT-J95L,PARKS-MTHOPE-AP1,"Mt Hope Cemetery, Hyde Park, MA - Cummings Hwy & Canterbury St",42.2791186669152,-71.1169910430908,"['Mount-Hope-Cemetery', 'Outside']",2024/04/02 07:55:59+00,1,,,,Mount Hope Cemetery Outside,115
116,-71.1174785831756,42.3158788382307,N_568579452955527921,Parks,Q2CD-6YGF-H7PW,PARKS-JAMAICAPOND-AP3,"507 Jamaicaway, Jamaica Plain, MA - inside boat house",42.3158788382307,-71.1174785831756,"['Jamaica-Pond', 'Outside']",2024/04/02 07:55:59+00,1,,,,Jamaica Pond Outside,116
117,-71.086450598541,42.3231886637714,N_568579452955527921,Parks,Q2AK-ZBZB-FW8M,PARKS-FRANKLIN-AP1,"1 Circuit Dr., Roxbury, MA",42.3231886637714,-71.086450598541,"['Franklin-Park', 'Outside']",2024/04/02 07:55:59+00,1,,,,Franklin Park Outside,117
118,-71.1210815530909,42.2563069435643,N_568579452955538316,Hyde Park,Q3AK-EQZ5-MHCW,HP-BCYF-AP1,"1179 River Street, Hyde Park, MA02136",42.2563069435643,-71.1210815530909,[],2024/04/02 07:56:01+00,1,,,,,118
119,-71.1242186509677,42.2564734025513,N_568579452955538316,Hyde Park,Q2CK-ZJFC-GBK2,HP-BPDE18-AP1,"1249 Hyde Park Ave., Hyde Park, MA",42.2564734025513,-71.1242186509677,"['BPD', 'District-E-18', 'Outside']",2024/04/02 07:56:01+00,1,BPD,,,District E 18 Outside,119
120,-71.1213356043077,42.2572896520292,N_568579452955538316,Hyde Park,Q2AK-GPHE-YSR2,HP-CENTRAL-AP1,"26 Central Ave., Hyde Park, MA",42.2572896520292,-71.1213356043077,"['BPHC', 'Hyde-Park', 'Outside']",2024/04/02 07:56:01+00,1,BPHC,,,Hyde Park Outside,120
121,-71.1220906048712,42.2571186525548,N_568579452955538316,Hyde Park,Q2CK-53BW-3TB9,HP-BPL-AP2,"35 Harvard Ave., Hyde Park, MA - Roof South",42.2571186525548,-71.1220906048712,"['BPL', 'Hyde-Park-Branch', 'Outside']",2024/04/02 07:56:01+00,1,BPL,,,Hyde Park Branch Outside,121
122,-71.120376,42.253349,N_568579452955538316,Hyde Park,Q2AK-MNV6-RH2P,HP-MAPLE-AP1,"Maple St., Hyde Park, MA - between Oak and River St.",42.253349,-71.120376,"['Hyde-Park', 'Outside']",2024/04/02 07:56:01+00,1,,,,Hyde Park Outside,122
123,-71.1309085,42.2507393,N_568579452955538316,Hyde Park,Q2CK-TSDP-WCWR,HP-BPDE18-AP4,"Corner of Business & River St, Hyde Park MA",42.2507393,-71.1309085,"['BPD', 'District', 'E-18', 'Outside']",2024/04/02 07:56:01+00,1,BPD,,,District E 18 Outside,123
124,-71.1220906048712,42.2571186525548,N_568579452955538316,Hyde Park,Q2CK-MJQD-GHYW,HP-BPL-AP1,"35 Harvard Ave., Hyde Park, MA - Roof North",42.2571186525548,-71.1220906048712,"['BPL', 'Hyde-Park-Branch', 'Outside']",2024/04/02 07:56:01+00,1,BPL,,,Hyde Park Branch Outside,124
125,-71.1242186509677,42.2564734025513,N_568579452955538316,Hyde Park,Q2CK-NERF-4JX7,HP-BPDE18-AP2,"1249 Hyde Park Ave., Hyde Park, MA",42.2564734025513,-71.1242186509677,['recently-added'],2024/04/02 07:56:01+00,1,,,,,125
126,-71.1198806041961,42.2551286509519,N_568579452955538316,Hyde Park,Q2CK-4SHS-VJAG,HP-BFD48-AP2,"60 Fairmont Ave., Hyde Park, MA",42.2551286509519,-71.1198806041961,"['BFD', 'Engine-48', 'Outside']",2024/04/02 07:56:01+00,1,BFD,,,Engine 48 Outside,126
127,-71.1454906150665,42.3490886680621,N_568579452955538703,Alston Brighton,Q2CK-SRAD-M7DC,AB-BRIGHTON-HIGH-AP1,"25 Warren St, Brighton, MA 02135",42.3490886680621,-71.1454906150665,"['BCYF-Grant', 'BPS', 'Brighton-High-School', 'Outside']",2024/04/02 07:56:02+00,1,BPS,,,Brighton High School Outside,127
128,-71.0638272770378,42.3554355018542,N_601230550253961607,Maintenance,Q2CK-L3KB-8LWG,PARKS-COMMONWEST-AP4,"139 Tremont St, Boston, MA 02111",42.3554355018542,-71.0638272770378,['recently-added'],2024/04/02 07:56:06+00,1,,,,,128
129,-71.1040894429907,42.2758153108873,N_601230550253962329,BCYF Indoor,Q3AC-EY52-2VC8,BCYF-Mattahunt-AP4,"100 Hebron St, Mattapan, MA 02126",42.2758153108873,-71.1040894429907,['BCYF'],2024/04/02 07:56:08+00,1,BCYF,,,,129
130,-71.071254927452,42.3261340878442,N_579275502070532581,Roxbury,Q2CK-F2BB-S6RY,ROX-MASON-AP1,"150 Norfolk Ave., Roxbury, MA",42.3261340878442,-71.071254927452,['recently-added'],2024/04/02 07:56:03+00,1,,,,,130
131,-71.0778354554697,42.3182676639245,N_579275502070532581,Roxbury,Q2CK-7AFY-YUJ9,ROX-WINTHROP-AP5,"Woodbine and Blue Hill Ave., Roxbury, MA",42.3182676639245,-71.0778354554697,"['BPS', 'Outside', 'Winthrop-School']",2024/04/02 07:56:03+00,1,BPS,,,Outside Winthrop School,131
132,-71.0981406003313,42.332218666615,N_579275502070532581,Roxbury,Q2CK-SARQ-LX6F,ROX-Tobin-BCYF-AP1,"1481 Tremont St, Roxbury Crossing, MA 02120",42.332218666615,-71.0981406003313,"['BCYF', 'BCYF-Grant', 'Outdoor', 'Tobin-Comm-Center']",2024/04/02 07:56:03+00,1,BCYF,,,Outdoor Tobin Comm Center,132
133,-71.075406793306,42.309056987344,N_579275502070532581,Roxbury,Q2CK-FC84-AQTJ,ROX-FREDERICK-AP2,"270 Columbia Rd., Dorchester, MA",42.309056987344,-71.075406793306,"['BPS', 'Frederick-Pilot-School', 'Outside']",2024/04/02 07:56:03+00,1,BPS,,,Frederick Pilot School Outside,133
134,-71.0388091272144,42.3710258637724,N_601230550253961436,East Boston,Q2CK-L58U-SANP,EB-BPDA7-AP2,"69 Paris Street, East Boston",42.3710258637724,-71.0388091272144,['recently-added'],2024/04/02 07:56:05+00,1,,,,,134
135,-71.07677,42.32673,N_601230550253962329,BCYF Indoor,Q2LD-D7L7-Y73T,BCYF-Vine Street-Fitness room 219,"339 Dudley Street. Boston, MA",42.32673,-71.07677,[],2024/04/02 07:56:08+00,1,,,,,135
136,-71.0659605900958,42.315958662778,N_601230550253965256,Strand Theatre - Internal,Q2LD-ENHA-3CRX,Strand_F.O.H,"543 Columbia Rd, Boston, MA 02125",42.315958662778,-71.0659605900958,['Inside'],2024/04/02 07:56:10+00,1,,,Inside,,136
137,-71.0985052585602,42.3322293464783,L_601230550253962684,YEE Tremont,Q2FD-Z652-S5PF,BCYF_Tremont_YEE_2nd floor-AP1,"1483 Tremont St, Boston, MA",42.3322293464783,-71.0985052585602,"['DYEE', 'Inside']",2024/04/02 07:55:44+00,1,DYEE,,Inside,,137
138,-71.0980385541916,42.3322134838406,L_601230550253962684,YEE Tremont,Q3AC-XY74-7QFU,BCYF_Tremont_YEE_2nd floor-BACK-AP4,"1483 Tremont St, Boston, MA",42.3322134838406,-71.0980385541916,"['DYEE', 'Inside']",2024/04/02 07:55:44+00,1,DYEE,,Inside,,138
139,-71.0984194278717,42.332316590914,L_601230550253962684,YEE Tremont,Q2FD-SWSB-V67K,BCYF_Tremont_YEE_3rd floor-AP1,"1483 Tremont St, Boston, MA",42.332316590914,-71.0984194278717,"['DYEE', 'Inside']",2024/04/02 07:55:44+00,1,DYEE,,Inside,,139
140,-71.0982584953308,42.3321738272289,L_601230550253962684,YEE Tremont,Q2FD-SU8V-RAXB,BCYF_Tremont_YEE_2nd floor-AP2,"1483 Tremont St, Boston, MA",42.3321738272289,-71.0982584953308,"['DYEE', 'Inside']",2024/04/02 07:55:44+00,1,DYEE,,Inside,,140
141,-71.098650097847,42.332269003055,L_601230550253962684,YEE Tremont,Q2FD-YZLD-HNUS,BCYF_Tremont_YEE_2nd floor-AP3,"1483 Tremont St, Boston, MA",42.332269003055,-71.098650097847,"['DYEE', 'Inside']",2024/04/02 07:55:44+00,1,DYEE,,Inside,,141
142,-71.0532885789871,42.373779683456,L_601230550253962688,Navy Yard,Q2EK-7S8P-KQQL,NavyYard-AP1,navy yard cambridge,42.373779683456,-71.0532885789871,[],2024/04/02 07:55:54+00,1,,,,,142
143,-71.053267121315,42.3736845704698,L_601230550253962688,Navy Yard,Q2EK-R989-H6FG,NavyYard-AP3,Navy yard Cambridge,42.3736845704699,-71.053267121315,[],2024/04/02 07:55:54+00,1,,,,,143
144,-71.053272485733,42.3737202378565,L_601230550253962688,Navy Yard,Q2EK-HAXQ-8XW4,NavyYard-AP2,Navy yard Cambridge,42.3737202378566,-71.053272485733,[],2024/04/02 07:55:54+00,1,,,,,144
145,,,L_601230550253963849,Mobile WiFi Kit 1,Q3AK-SUL7-7FC4,MR76-1,,,,[],2024/04/02 07:55:55+00,1,,,,,145
146,,,L_601230550253963849,Mobile WiFi Kit 1,Q2ZY-RF99-YN45,MG41-1,,,,[],2024/04/02 07:55:55+00,1,,,,,146
147,-71.0592601837876,42.2979790301264,N_568579452955534204,Dorchester,Q2CK-NE73-ZSQB,DOT-BPDC11-AP1,"40 Gibson st, Dorchester, ma",42.2979790301264,-71.0592601837876,['recently-added'],2024/04/02 07:55:59+00,1,,,,,147
148,-71.0767074541993,42.3268107188774,N_579275502070532581,Roxbury,Q2CK-ZXL4-AYZP,ROX-VINE-AP1,"339 Dudley St, Roxbury",42.3268107188774,-71.0767074541993,['recently-added'],2024/04/02 07:56:03+00,1,,,,,148
149,-71.07677,42.32673,N_601230550253962329,BCYF Indoor,Q2LD-YT4H-L4ES,BCYF-Vine Street-room 106 Teen,"339 Dudley Street. Boston, MA",42.32673,-71.07677,[],2024/04/02 07:56:08+00,1,,,,,149
150,-71.0388091272144,42.3710258637724,N_601230550253961436,East Boston,Q2CK-N6MC-XFPQ,EB-BPDA7-AP3,"69 Paris Street, East Boston",42.3710258637724,-71.0388091272144,['recently-added'],2024/04/02 07:56:05+00,1,,,,,150
151,,,N_568579452955538316,Hyde Park,Q2CK-KB3U-MCEQ,,,,,['recently-added'],2024/04/02 07:56:01+00,1,,,,,151
152,-71.0581405914467,42.3601086714318,N_601230550253966673,Downtown Boston - City Hall Plaza and Pavilion,Q3AE-2N4M-BWUD,,,42.3601086714318,-71.0581405914467,['City-Hall'],2024/04/02 07:56:11+00,1,,,,City Hall,152
153,-71.0767074541993,42.3268107188774,N_579275502070532581,Roxbury,Q2CK-NEZE-VRYJ,ROX-VINE-AP3,"339 Dudley St, Roxbury",42.3268107188774,-71.0767074541993,['recently-added'],2024/04/02 07:56:03+00,1,,,,,153
154,-71.1277009143321,42.2865140418411,N_601230550253961252,Roslindale,Q2CK-6PU6-G499,ROS-COMMUNITY-AP2,"6 Cummings Highway, Roslindale, MA",42.2865140418411,-71.1277009143321,"['BCYF/BPL', 'Outside', 'Roslindale-Comm-Center']",2024/04/02 07:56:04+00,1,BCYF,BPL,,Outside Roslindale Comm Center,154
155,-71.1277009143321,42.2865140418411,N_601230550253961252,Roslindale,Q2CK-5TD4-6S66,ROS-COMMUNITY-AP1,"6 Cummings Highway, Roslindale, MA",42.2865140418411,-71.1277009143321,"['BCYF/BPL', 'Outside', 'Roslindale-Comm-Center']",2024/04/02 07:56:04+00,1,BCYF,BPL,,Outside Roslindale Comm Center,155
156,-71.0578697919846,42.3606646213586,N_601230550253961310,Downtown Boston - City Hall - Quincy Market,Q3AE-MULH-9V9B,DT-CITYHALL-9th-Floor-Interior Ring,One City Hall Sq.  Boston MA 02201,42.3606646213586,-71.0578697919846,[],2024/04/02 07:56:04+00,1,,,,,156
157,-71.0558044910431,42.36016913621,N_601230550253961310,Downtown Boston - City Hall - Quincy Market,Q3AE-Q7YG-V974,DT-QUINCYMARKET-AP1,"Faneuil Hall Marketplace
Boston MA 02201",42.36016913621,-71.0558044910431,[],2024/04/02 07:56:04+00,1,,,,,157
158,-71.088475137949,42.3145819509434,N_579275502070532581,Roxbury,Q2CK-BF8L-TU5P,ROX-TROTTER-AP2,"Humbolt & Waumbeck St., Roxbury, MA",42.3145819509434,-71.088475137949,"['BPS', 'Outside', 'Trotter-School']",2024/04/02 07:56:03+00,1,BPS,,,Outside Trotter School,158
159,-71.0901645617862,42.3224337457746,N_579275502070532581,Roxbury,Q2CK-DPQP-RN6X,ROX-SHELBURNE-AP2,"2730 Washington St., Roxbury, MA",42.3224337457746,-71.0901645617862,"['BCYF/BPL', 'Outside', 'Shelbourne-Comm-Center']",2024/04/02 07:56:03+00,1,BCYF,BPL,,Outside Shelbourne Comm Center,159
160,-71.0901645617862,42.3224337457746,N_579275502070532581,Roxbury,Q2CK-NU6F-VDER,ROX-SHELBURNE-AP1,"2730 Washington St., Roxbury, MA",42.3224337457746,-71.0901645617862,"['BCYF/BPL', 'Outside', 'Shelbourne-Comm-Center']",2024/04/02 07:56:03+00,1,BCYF,BPL,,Outside Shelbourne Comm Center,160
161,-71.071254927452,42.3261340878442,N_579275502070532581,Roxbury,Q2CK-HM2N-KPSM,ROX-MASON-AP2,"150 Norfolk Ave., Roxbury, MA",42.3261340878442,-71.071254927452,['recently-added'],2024/04/02 07:56:03+00,1,,,,,161
162,-71.057413816452,42.3602048112712,N_601230550253961310,Downtown Boston - City Hall - Quincy Market,Q3AE-GDTR-3C3W,DT-CITYHALL-AP2,"One City Hall Sq
Boston MA 02201",42.3602048112712,-71.057413816452,[],2024/04/02 07:56:04+00,1,,,,,162
163,-71.0639761729006,42.3559889328712,N_568579452955527921,Parks,Q3AK-DRLB-LEZF,PARKS-COMMON-AP5,Boston Common,42.3559889328712,-71.0639761729006,[],2024/04/02 07:55:59+00,1,,,,,163
164,-71.0639761729006,42.3559889328712,N_568579452955527921,Parks,Q3AK-EK6U-T4FW,PARKS-COMMON-AP2,Boston Common,42.3559889328712,-71.0639761729006,[],2024/04/02 07:55:59+00,1,,,,,164
165,-71.0977575987968,42.3184116635137,N_579275502070532581,Roxbury,Q2CK-XD4N-QHUN,BFD-E42-AP1,"1870 Columbus Ave., Roxbury, MA",42.3184116635137,-71.0977575987968,"['BFD', 'Engine-42', 'Outside', 'recently-added']",2024/04/02 07:56:03+00,1,BFD,,,Engine 42 Outside,165
166,-71.0779090213365,42.330275209131,N_579275502070532581,Roxbury,Q2CK-VQ39-UL8G,ROX-ORCHARD-AP3,"906 Albany St., Roxbury, MA",42.330275209131,-71.0779090213365,"['BPS', 'Orchard-Garden-School', 'Outside']",2024/04/02 07:56:03+00,1,BPS,,,Orchard Garden School Outside,166
167,-71.0639761729006,42.3559889328712,N_568579452955527921,Parks,Q3AK-CVAE-CUZU,PARKS-COMMON-AP6,Boston Common,42.3559889328712,-71.0639761729006,[],2024/04/02 07:55:59+00,1,,,,,167
168,-71.0823033750057,42.3285136621772,N_579275502070532581,Roxbury,Q2CK-SF4S-8JL2,ROX-BFDE14-AP3,On pole across from BFD Engine 14,42.3285136621772,-71.0823033750057,"['BFD', 'Engine-14', 'Outside']",2024/04/02 07:56:03+00,1,BFD,,,Engine 14 Outside,168
169,-71.0755745088682,42.3178992620491,N_579275502070532581,Roxbury,Q2CK-6B8Q-V8DD,ROX-WINTHROP-AP2,"35 Brookford St., Roxbury, MA",42.3178992620491,-71.0755745088682,"['BPS', 'Outside', 'Winthrop-School']",2024/04/02 07:56:03+00,1,BPS,,,Outside Winthrop School,169
170,-71.0856739294746,42.3284427142527,N_579275502070532581,Roxbury,Q2CK-NU67-LP8V,ROX-BPDB2-AP1,"2400 Washington St., Roxbury, MA - Right Front Side Roof Facing Dudley MBTA",42.3284427142527,-71.0856739294746,"['BPD', 'District-B-2', 'Outside']",2024/04/02 07:56:03+00,1,BPD,,,District B 2 Outside,170
171,-71.1286705320712,42.2856185329317,N_601230550253961252,Roslindale,Q2CK-7FHC-97HP,ROS-BPL-AP2,"4246 Washington St., Roslindale MA",42.2856185329317,-71.1286705320712,"['BPL', 'Outside', 'Roslindale-branch']",2024/04/02 07:56:04+00,1,BPL,,,Outside Roslindale branch,171
172,-71.0540610551834,42.3601532806207,N_601230550253961310,Downtown Boston - City Hall - Quincy Market,Q3AE-PMFQ-JUX3,DT-QUINCYMARKET-AP4,"Faneuil Hall Marketplace
Boston MA 02201",42.3601532806207,-71.0540610551834,[],2024/04/02 07:56:04+00,1,,,,,172
173,-71.0351507134259,42.3291223754466,N_601230550253966945,BCYF-Curley,Q3AK-BEXN-TQN3,BCYF-CURLEY-AP12_OutDoor,"1663 Columbia Rd, Boston, MA 02127",42.3291223754466,-71.0351507134259,[],2024/04/02 07:56:12+00,1,,,,,173
174,-71.0639761729006,42.3559889328712,N_568579452955527921,Parks,Q3AK-CR6K-YPBC,PARKS-COMMON-AP4,Boston Common,42.3559889328712,-71.0639761729006,[],2024/04/02 07:55:59+00,1,,,,,174
175,-71.0758748743683,42.3179805455354,N_579275502070532581,Roxbury,Q2CK-5S3K-8KFF,ROX-WINTHROP-AP3,"35 Brookford St., Roxbury, MA",42.3179805455354,-71.0758748743683,"['BPS', 'Outside', 'Winthrop-School']",2024/04/02 07:56:03+00,1,BPS,,,Outside Winthrop School,175
176,-71.0824098909045,42.3288164275404,N_579275502070532581,Roxbury,Q2CK-MR56-4QY6,ROX-BFDE14-AP2,"174 Dudley St., Roxbury, MA - Front Roof Facing Dudley St",42.3288164275404,-71.0824098909045,"['BFD', 'Engine-14', 'Outside']",2024/04/02 07:56:03+00,1,BFD,,,Engine 14 Outside,176
177,-71.1286705320712,42.2856185329317,N_601230550253961252,Roslindale,Q2CK-6V2L-TCDF,ROS-BPL-AP1,"4246 Washington St., Roslindale MA",42.2856185329317,-71.1286705320712,"['BPL', 'Outside', 'Roslindale-branch']",2024/04/02 07:56:04+00,1,BPL,,,Outside Roslindale branch,177
178,-71.1277009143321,42.2865140418411,N_601230550253961252,Roslindale,Q2CK-NLJC-KT9P,ROS-COMMUNITY-AP4,"6 cummins highway, Roslindale, ma",42.2865140418411,-71.1277009143321,"['BCYF', 'Flaherty-Pool', 'Outside']",2024/04/02 07:56:04+00,1,BCYF,,,Flaherty Pool Outside,178
179,-71.0579878091812,42.3601493167227,N_601230550253961310,Downtown Boston - City Hall - Quincy Market,Q3AE-4FLA-SJCJ,DT-Beer garden 2- higher level of beer garden,One City Hall Sq  Boston MA 02201,42.3601493167228,-71.0579878091812,[],2024/04/02 07:56:04+00,1,,,,,179
180,-71.0582828521729,42.360165172313,N_601230550253961310,Downtown Boston - City Hall - Quincy Market,Q3AE-JLUF-293V,DT-City Hall Front right side up stairs,One City Hall Sq  Boston MA 02201,42.360165172313,-71.0582828521729,[],2024/04/02 07:56:04+00,1,,,,,180
181,-71.0557508468628,42.3600224718566,N_601230550253961310,Downtown Boston - City Hall - Quincy Market,Q3AE-F6RV-VVHP,DT-QUINCYMARKET-AP3,"Faneuil Hall Marketplace
Boston MA 02201",42.3600224718566,-71.0557508468628,[],2024/04/02 07:56:04+00,1,,,,,181
182,-71.0574513673782,42.3599075184754,N_601230550253961310,Downtown Boston - City Hall - Quincy Market,Q3AE-TBT5-D72C,DT-Beer garden 1- lower part of beer garden,One City Hall Sq  Boston MA 02201,42.3599075184754,-71.0574513673782,[],2024/04/02 07:56:04+00,1,,,,,182
183,-71.0576981306076,42.3606329104261,N_601230550253961310,Downtown Boston - City Hall - Quincy Market,Q3AE-ZUF3-Y73P,DT-CITYHALL-4th-Floor-Patio-AP1,One City Hall Sq  Boston MA 02201,42.3606329104261,-71.0576981306076,[],2024/04/02 07:56:04+00,1,,,,,183
184,-71.0577571392059,42.3600819304195,N_601230550253961310,Downtown Boston - City Hall - Quincy Market,Q3AE-ZXW8-H9ZW,DT-CITYHALL-8th-Floor-Interior Ring,"One City Hall Sq
Boston MA 02201",42.3600819304195,-71.0577571392059,[],2024/04/02 07:56:04+00,1,,,,,184
185,-71.0576391220093,42.3605575968973,N_601230550253961310,Downtown Boston - City Hall - Quincy Market,Q3AE-3A2V-JNVG,DT-CITYHALL-AP1,"One City Hall Sq
Boston MA 02201",42.3605575968973,-71.0576391220093,[],2024/04/02 07:56:04+00,1,,,,,185
186,-71.0388091272144,42.3710258637724,N_601230550253961436,East Boston,Q2CK-ZYHQ-FVKG,EB-BPDA7-AP1,"69 Paris Street, East Boston",42.3710258637724,-71.0388091272144,"['BPD', 'District-A-7', 'E-Boston-Main-Street', 'Outside']",2024/04/02 07:56:05+00,1,BPD,,,District A 7 E Boston Main Street Outside,186
187,-71.0639761729006,42.3559889328712,N_568579452955527921,Parks,Q3AK-DGSZ-GM7H,PARKS-COMMON-AP7,Boston Common,42.3559889328712,-71.0639761729006,[],2024/04/02 07:55:59+00,1,,,,,187
188,-71.0765636153519,42.3111790198738,N_579275502070532581,Roxbury,Q2CK-5YEE-273N,ROX-MLKSCHOOL-AP2,"77 Lawrence Ave., Roxbury, MA",42.3111790198738,-71.0765636153519,"['BPS', 'MLK', 'Outside']",2024/04/02 07:56:03+00,1,BPS,,,MLK Outside,188
189,-71.0891797207296,42.3132486987508,N_579275502070532581,Roxbury,Q2CK-DSFT-7HTL,ROX-TROTTER-AP3,"Humbolt & Waumbeck St., Roxbury, MA",42.3132486987508,-71.0891797207296,"['BPS', 'Outside', 'Trotter-School']",2024/04/02 07:56:03+00,1,BPS,,,Outside Trotter School,189
190,-71.0853237938136,42.316371590204,N_579275502070532581,Roxbury,Q2CK-FSAF-7UZR,ROX-BLA-AP1,"205 Townsend St., Roxbury, MA - west side of roof",42.316371590204,-71.0853237938136,"['BPS', 'Boston-Latin-Academy', 'Outside']",2024/04/02 07:56:03+00,1,BPS,,,Boston Latin Academy Outside,190
191,-71.0777692737539,42.3198727205825,N_579275502070532581,Roxbury,Q2CK-6JQN-FZR8,ROX-WINTHROP-AP4,"Waverley & Blue Hill Ave., Roxbury, MA",42.3198727205825,-71.0777692737539,"['BPS', 'Outside', 'Winthrop-School']",2024/04/02 07:56:03+00,1,BPS,,,Outside Winthrop School,191
192,-71.0908800882127,42.3319176883679,N_579275502070532581,Roxbury,Q2CK-SU8N-5VU8,ROX-Madison Park-HS-AP3,"75 Malcolm X Blvd, Boston, MA 02120",42.3319176883679,-71.0908800882127,['recently-added'],2024/04/02 07:56:03+00,1,,,,,192
193,-71.0880409553647,42.3152453589757,N_579275502070532581,Roxbury,Q2CK-H5VS-5UKS,ROX-TROTTER-AP1,"135 Humboldt Ave., Roxbury, MA",42.3152453589757,-71.0880409553647,"['BPS', 'Outside', 'Trotter-School']",2024/04/02 07:56:03+00,1,BPS,,,Outside Trotter School,193
194,-71.0763597674668,42.3111314160251,N_579275502070532581,Roxbury,Q2CK-6FWU-5RHA,ROX-MLKSCHOOL-AP1,"77 Lawrence Ave., Roxbury, MA",42.3111314160251,-71.0763597674668,"['BPS', 'MLK', 'Outside']",2024/04/02 07:56:03+00,1,BPS,,,MLK Outside,194
195,-71.0827696393244,42.3087000852543,N_579275502070532581,Roxbury,Q2CK-649T-2WQZ,ROX-GROVEHALL-AP7,"476 Blue Hill Ave., Roxbury, MA",42.3087000852543,-71.0827696393244,"['BPL', 'Grove-Hall', 'Outside']",2024/04/02 07:56:03+00,1,BPL,,,Grove Hall Outside,195
196,-71.0824098909045,42.3288164275404,N_579275502070532581,Roxbury,Q2CK-SDQD-U3MQ,ROX-BFDE14-AP1,"174 Dudley St., Roxbury, MA - Rear Roof Facing Palmer Street",42.3288164275404,-71.0824098909045,"['BFD', 'Engine-14', 'Outside']",2024/04/02 07:56:03+00,1,BFD,,,Engine 14 Outside,196
197,-71.0760806650837,42.3075668730015,N_579275502070532581,Roxbury,Q2CK-64RA-6G66,ROX-FREDERICK-AP3,"Devon & Columbia Rd, Dorchester, MA",42.3075668730015,-71.0760806650837,"['BPS', 'Frederick-Pilot-School', 'Outside']",2024/04/02 07:56:03+00,1,BPS,,,Frederick Pilot School Outside,197
198,-71.08121,42.30787,N_579275502070532581,Roxbury,Q2CK-LP79-KBBG,ROX-GROVEHALL-AP1,"41 Geneva Ave, Roxbury",42.30787,-71.08121,['recently-added'],2024/04/02 07:56:03+00,1,,,,,198
199,-71.0728805931549,42.3235286647915,N_579275502070532581,Roxbury,Q2CK-NM86-CUTL,ROX-EMERSON-AP2,"6 SHIRLEY ST
 ROXBURY, MA 02119",42.3235286647916,-71.0728805931549,['recently-added'],2024/04/02 07:56:03+00,1,,,,,199
200,-71.0816411374674,42.3068594547874,N_579275502070532581,Roxbury,Q2CK-NFVJ-3N86,ROX-BURKE-AP1,"60 Washington St.
Dorchester, MA 02121",42.3068594547874,-71.0816411374674,"['BPS', 'Jeremiah-Burke-School', 'Outside']",2024/04/02 07:56:03+00,1,BPS,,,Jeremiah Burke School Outside,200
201,-71.0856739294746,42.3284427142527,N_579275502070532581,Roxbury,Q2CK-NPJ9-EDSZ,ROX-BPDB2-AP3,"2400 Washington St., Roxbury, MA - Left Side Facing Bartlett St",42.3284427142527,-71.0856739294746,"['BPD', 'District-B-2', 'Outside']",2024/04/02 07:56:03+00,1,BPD,,,District B 2 Outside,201
202,-71.0816411374674,42.3068594547874,N_579275502070532581,Roxbury,Q2CK-NNVA-2639,ROX-BURKE-AP2,"60 Washington St.
Dorchester, MA 02121",42.3068594547874,-71.0816411374674,"['BPS', 'Jeremiah-Burke-School', 'Outside']",2024/04/02 07:56:03+00,1,BPS,,,Jeremiah Burke School Outside,202
203,-71.0908800882127,42.3319176883679,N_579275502070532581,Roxbury,Q2CK-SQTZ-N3W3,ROX-Madison Park-HS-AP2,"75 Malcolm X Blvd, Boston, MA 02120",42.3319176883679,-71.0908800882127,['recently-added'],2024/04/02 07:56:03+00,1,,,,,203
204,-71.0387215860435,42.3680616745087,N_601230550253961436,East Boston,Q2CK-DR2X-L8TF,EB-ENGINE9-AP2,"239 Sumner St., East Boston, MA - Left front on Station",42.3680616745087,-71.0387215860435,"['BFD', 'E-Boston-Main-Street', 'Engine-9', 'Outside']",2024/04/02 07:56:05+00,1,BFD,,,E Boston Main Street Engine 9 Outside,204
205,-71.0639761729006,42.3559889328712,N_568579452955527921,Parks,Q3AK-CVAW-H5UM,PARKS-COMMON-AP9,Boston Common,42.3559889328712,-71.0639761729006,[],2024/04/02 07:55:59+00,1,,,,,205
206,-71.0639761729006,42.3559889328712,N_568579452955527921,Parks,Q3AK-DGWD-NEFT,PARKS-COMMON-AP10,Boston Common,42.3559889328712,-71.0639761729006,[],2024/04/02 07:55:59+00,1,,,,,206
207,-71.0639761729006,42.3559889328712,N_568579452955527921,Parks,Q3AK-CR92-A992,PARKS-COMMON-AP1,Boston Common,42.3559889328712,-71.0639761729006,[],2024/04/02 07:55:59+00,1,,,,,207
208,-71.0492044416863,42.2942127699993,N_568579452955534204,Dorchester,Q2CK-FZJ6-67HG,DOT-MURPHY-AP2,"1 worrell st Dorchester, ma",42.2942127699993,-71.0492044416863,"['BCYF-Grant', 'BPS', 'Murphy-School', 'Outside']",2024/04/02 07:55:59+00,1,BPS,,,Murphy School Outside,208
209,-71.0617704923213,42.3007978891716,N_568579452955534204,Dorchester,Q2CK-L5SX-NBNQ,DOT-CLEVELAND-AP1,"11 Charles St, Dorchester",42.3007978891716,-71.0617704923213,['recently-added'],2024/04/02 07:55:59+00,1,,,,,209
210,-71.0610172532622,42.3083965259321,N_568579452955534204,Dorchester,Q2CK-NJQU-RB55,DOT-MATHER-AP3,"24 Parrish St, Dorchester",42.3083965259321,-71.0610172532622,['recently-added'],2024/04/02 07:55:59+00,1,,,,,210
211,-71.1681606233992,42.3512876680803,N_568579452955538703,Alston Brighton,Q2AK-HEMW-CKJN,AB-OAKSQUARE-AP1,"425 Faneuil St., Brighton, MA",42.3512876680804,-71.1681606233992,"['BFD', 'Engine-51', 'Outside']",2024/04/02 07:56:02+00,1,BFD,,,Engine 51 Outside,211
212,-71.1454906150665,42.3490886680621,N_568579452955538703,Alston Brighton,Q2CK-SVB3-JPWM,AB-BRIGHTON-HIGH-AP2,"25 Warren St, Brighton, MA 02135",42.3490886680621,-71.1454906150665,"['BCYF-Grant', 'BPS', 'Brighton-High-School', 'Outside']",2024/04/02 07:56:02+00,1,BPS,,,Brighton High School Outside,212
213,-71.1377006157859,42.3520586682847,N_568579452955538703,Alston Brighton,Q2AK-PKLP-V45Q,AB-JACKSON-AP1,"40 Armington St., Allston, MA",42.3520586682847,-71.1377006157859,"['BPS', 'Jackson-Mann-School', 'Outside']",2024/04/02 07:56:02+00,1,BPS,,,Jackson Mann School Outside,213
214,-71.1454906150665,42.3490886680621,N_568579452955538703,Alston Brighton,Q2CK-SA2P-MX2R,AB-BRIGHTON-HIGH-AP3,"25 Warren St, Brighton, MA 02135",42.3490886680621,-71.1454906150665,"['BCYF-Grant', 'BPS', 'Brighton-High-School', 'Outside']",2024/04/02 07:56:02+00,1,BPS,,,Brighton High School Outside,214
215,-71.1361326132616,42.3538256682487,N_568579452955538703,Alston Brighton,Q2CK-LVPP-KFQ4,AB-BFDE41-AP1,"460 Cambridge St

Boston, MA 02134",42.3538256682487,-71.1361326132616,['recently-added'],2024/04/02 07:56:02+00,1,,,,,215
216,-71.0774297685712,42.3277333446658,N_579275502070532581,Roxbury,Q2CK-5FW6-RS9C,ROX-VINE-AP5,"Dudley and Adams St., Roxbury, MA",42.3277333446658,-71.0774297685712,"['BCYF/BPL', 'Outside', 'Vine-St-Comm-Center', 'recently-added']",2024/04/02 07:56:03+00,1,BCYF,BPL,,Outside Vine St Comm Center,216
217,-71.0977575987968,42.3184116635137,N_579275502070532581,Roxbury,Q2CK-BX25-DLJ2,BFD-E42-AP2,"1870 Columbus Ave., Roxbury, MA",42.3184116635137,-71.0977575987968,"['BFD', 'Engine-42', 'Outside', 'recently-added']",2024/04/02 07:56:03+00,1,BFD,,,Engine 42 Outside,217
218,-71.0977575987968,42.3184116635137,N_579275502070532581,Roxbury,Q2CK-2D9P-VKGR,ROX-BFDE42-AP1,"1870 Columbus Ave., Roxbury, MA",42.3184116635137,-71.0977575987968,"['BFD', 'Engine-42', 'Outside']",2024/04/02 07:56:03+00,1,BFD,,,Engine 42 Outside,218
219,-71.0837949346751,42.3157289882279,N_579275502070532581,Roxbury,Q2CK-GLBJ-XZRY,ROX-BLA-AP2,"205 Townsend St., Roxbury, MA - east side of roof",42.3157289882279,-71.0837949346751,"['BPS', 'Boston-Latin-Academy', 'Outside']",2024/04/02 07:56:03+00,1,BPS,,,Boston Latin Academy Outside,219
220,-71.0779090213365,42.330275209131,N_579275502070532581,Roxbury,Q2CK-HDFV-VYBC,ROX-ORCHARD-AP2,"906 Albany St., Roxbury, MA",42.330275209131,-71.0779090213365,"['BPS', 'Orchard-Garden-School', 'Outside', 'recently-added']",2024/04/02 07:56:03+00,1,BPS,,,Orchard Garden School Outside,220
221,-71.0779090213365,42.330275209131,N_579275502070532581,Roxbury,Q2CK-ZWAD-LVEM,ROX-ORCHARD-AP1,"906 Albany St., Roxbury, MA",42.330275209131,-71.0779090213365,"['BPS', 'Orchard-Garden-School', 'Outside']",2024/04/02 07:56:03+00,1,BPS,,,Orchard Garden School Outside,221
222,-71.0388091272144,42.3710258637724,N_601230550253961436,East Boston,Q2CK-D66G-X9MY,EB-BPDA7-AP4,"69 Paris St., East Boston, MA - Right back pointing towards Maverick St",42.3710258637724,-71.0388091272144,"['BPD', 'District-A-7', 'E-Boston-Main-Street', 'Outside']",2024/04/02 07:56:05+00,1,BPD,,,District A 7 E Boston Main Street Outside,222
223,,,L_601230550253963850,Mobile WiFi Kit 2,Q3AK-W3JB-ZWJ4,MR76-2,,,,[],2024/04/02 07:55:55+00,1,,,,,223
224,-71.0856739294746,42.3284427142527,N_579275502070532581,Roxbury,Q2CK-NQHH-62DH,ROX-BPDB2-AP2,"2400 Washington St., Roxbury, MA - Left Side Rear Roof Facing Dudley & Washington",42.3284427142527,-71.0856739294746,"['BPD', 'District-B-2', 'Outside']",2024/04/02 07:56:03+00,1,BPD,,,District B 2 Outside,224
225,-71.0792760018623,42.3285580633239,N_579275502070532581,Roxbury,Q2CK-NF7G-GS7K,ROX-BFDE14-AP4,"Dudley St and Mt Pleasant Ave., Roxbury, MA",42.3285580633239,-71.0792760018623,"['BFD', 'Engine-14', 'Outside']",2024/04/02 07:56:03+00,1,BFD,,,Engine 14 Outside,225
226,-71.0865273092574,42.3170561743609,N_579275502070532581,Roxbury,Q2CK-DFHP-VUSX,ROX-BLA-AP3,"Humbolt & Townsend St., Roxbury, MA",42.3170561743609,-71.0865273092574,"['BPS', 'Boston-Latin-Academy', 'Outside']",2024/04/02 07:56:03+00,1,BPS,,,Boston Latin Academy Outside,226
227,-71.05777323246,42.3607280431755,N_601230550253961310,Downtown Boston - City Hall - Quincy Market,Q3AE-3S8D-CZPE,DT-CITYHALL-4th-Floor-Patio-Daycare,One City Hall Sq  Boston MA 02201,42.3607280431756,-71.05777323246,[],2024/04/02 07:56:04+00,1,,,,,227
228,-71.0379135875185,42.3699166745967,N_601230550253961436,East Boston,Q2CK-NQEV-RYEW,EB-154MAVERICK-AP1,"154 Maverick St, East Boston MA",42.3699166745967,-71.0379135875185,"['E-Boston-Main-Street', 'June2016', 'Outside', 'Private-residence', 'recently-added']",2024/04/02 07:56:05+00,1,,,,E Boston Main Street June2016 Outside Private residence,228
229,-71.0381805853654,42.3722786763649,N_601230550253961436,East Boston,Q2CK-NU9A-QWKC,EB-10GOVE-AP2,"10 Gove St, Boston, MA 02128, USA",42.3722786763649,-71.0381805853654,"['E-Boston-Main-Street', 'June2016', 'Outside', 'Private-residence']",2024/04/02 07:56:05+00,1,,,,E Boston Main Street June2016 Outside Private residence,229
230,-71.0387215860435,42.3680616745087,N_601230550253961436,East Boston,Q2EK-N2DB-5PSX,EB-ENGINE9-AP1,"239 Sumner St, Boston, MA 02128",42.3680616745087,-71.0387215860435,"['BFD', 'E-Boston-Main-Street', 'Engine-9', 'Outside']",2024/04/02 07:56:05+00,1,BFD,,,E Boston Main Street Engine 9 Outside,230
231,-71.0983121395111,42.3322372777956,N_601230550253961587,BCYF Tremont,Q2CK-UTKT-YZ7P,BCYF-3rd FL Easter Island,"1483 Tremont St, Boston, MA",42.3322372777957,-71.0983121395111,"['BCYF', 'Inside', 'employee']",2024/04/02 07:56:06+00,1,BCYF,,Inside,employee,231
232,-71.0983067750931,42.3321817585533,N_601230550253961587,BCYF Tremont,Q2QD-R397-ZFBT,BCYF-1st floor AP1 ,"1483 Tremont St, Boston, MA",42.3321817585533,-71.0983067750931,"['BCYF', 'Inside', 'UXI', 'employee']",2024/04/02 07:56:06+00,1,BCYF,,Inside,UXI employee,232
233,-71.0981726646423,42.33222141516,N_601230550253961587,BCYF Tremont,Q2QD-U3LC-V2UB,BCYF-1st floor AP2 ,"1483 Tremont St, Boston, MA",42.33222141516,-71.0981726646423,"['BCYF', 'Inside', 'employee']",2024/04/02 07:56:06+00,1,BCYF,,Inside,employee,233
234,-71.0985213518143,42.3322333121371,N_601230550253961587,BCYF Tremont,Q2FD-55JF-J4WS,BCYF-4th FL Library,"1483 Tremont St, Boston, MA",42.3322333121371,-71.0985213518143,"['BCYF', 'Inside', 'employee']",2024/04/02 07:56:06+00,1,BCYF,,Inside,employee,234
235,-71.0984462499619,42.332292796989,N_601230550253961587,BCYF Tremont,Q2FD-5N3B-TTKT,BCYF-4th FL Dep. Comm,"1483 Tremont St, Boston, MA",42.332292796989,-71.0984462499619,"['BCYF', 'employee', 'Inside']",2024/04/02 07:56:06+00,1,BCYF,,Inside,employee,235
236,-71.098650097847,42.332316590914,N_601230550253961587,BCYF Tremont,Q2FD-4SE4-JW2S,BCYF-3rd FL GED,"1483 Tremont St, Boston, MA",42.332316590914,-71.098650097847,"['BCYF', 'Inside', 'employee']",2024/04/02 07:56:06+00,1,BCYF,,Inside,employee,236
237,-71.0615135584342,42.3053784808087,N_601230550253961607,Maintenance,Q2CK-FBVU-CKYV,DOT-LINDEN-AP1,"Linden and Adams St., Dorchester, MA",42.3053784808087,-71.0615135584342,"['Linden', 'Outside', 'recently-added']",2024/04/02 07:56:06+00,1,,,,Linden Outside,237
238,-71.0836630325452,42.3301489235268,N_601230550253961809,Bolling,Q2FD-MTWE-FN62,BOL-WELCOMELOBBY-AP1,"2300 Washington St., Roxbury 02119",42.3301489235268,-71.0836630325452,"['Bolling', 'CoB-Employee', 'Inside']",2024/04/02 07:56:07+00,1,,,Inside,Bolling CoB Employee,238
239,-71.0836630325452,42.3301489235268,N_601230550253961809,Bolling,Q2FD-3Q7F-9C4J,BOL-FOYER-AP1,"2300 Washington St., Roxbury 02119",42.3301489235268,-71.0836630325452,"['Bolling', 'CoB-Employee', 'Inside']",2024/04/02 07:56:07+00,1,,,Inside,Bolling CoB Employee,239
240,-71.0836630325452,42.3301489235268,N_601230550253961809,Bolling,Q2FD-DQJY-R4K6,BOL-FOYER-AP2,"2300 Washington St., Roxbury 02119",42.3301489235268,-71.0836630325452,"['Bolling', 'CoB-Employee', 'Inside']",2024/04/02 07:56:07+00,1,,,Inside,Bolling CoB Employee,240
241,-71.0836630325452,42.3301489235268,N_601230550253961809,Bolling,Q2FD-6RML-C4S6,BOL-SCHLOBBY-AP1,"2300 Washington St., Roxbury 02119",42.3301489235268,-71.0836630325452,"['Bolling', 'CoB-Employee', 'Inside']",2024/04/02 07:56:07+00,1,,,Inside,Bolling CoB Employee,241
242,-71.1040894429907,42.2758153108873,N_601230550253962329,BCYF Indoor,Q3AC-GY58-QT3B,BCYF-Mattahunt-AP2,"100 Hebron St, Mattapan, MA 02126",42.2758153108873,-71.1040894429907,['BCYF'],2024/04/02 07:56:08+00,1,BCYF,,,,242
243,-71.0901645617862,42.3224337457746,N_601230550253962329,BCYF Indoor,Q3AK-WHQ6-PEDA,BCYF-Shelburne-MR76-AP3,"2730 Washington StBoston, MA 02119",42.3224337457746,-71.0901645617862,[],2024/04/02 07:56:08+00,1,,,,,243
244,-71.1040894429907,42.2758153108873,N_601230550253962329,BCYF Indoor,Q3AC-HQX7-ELUG,BCYF-Mattahunt-AP1,"100 Hebron St, Mattapan, MA 02126",42.2758153108873,-71.1040894429907,['BCYF'],2024/04/02 07:56:08+00,1,BCYF,,,,244
245,-71.0901645617862,42.3224337457746,N_601230550253962329,BCYF Indoor,Q3AK-WNHT-9SSX,BCYF-Shelburne-MR76-AP1,"2730 Washington St., Boston, MA 02119",42.3224337457746,-71.0901645617862,[],2024/04/02 07:56:08+00,1,,,,,245
246,-71.04967,42.29409,N_601230550253962329,BCYF Indoor,Q2KD-EVN5-DSFP,BCYF-Leahy-Holloran-AP1,"One Worrell St., Dorchester, MA - inside lobby reception desk",42.29409,-71.04967,"['BCYF', 'BCYF-Grant', 'Dorchester', 'Inside', 'Murphy']",2024/04/02 07:56:08+00,1,BCYF,,Inside,Dorchester Murphy,246
247,-71.1040894429907,42.2758153108873,N_601230550253962329,BCYF Indoor,Q3AC-PJCY-LDTD,BCYF-Mattahunt-AP5,"100 Hebron St, Mattapan, MA 02126",42.2758153108873,-71.1040894429907,['BCYF'],2024/04/02 07:56:08+00,1,BCYF,,,,247
248,-71.06449,42.34835,N_601230550253962329,BCYF Indoor,Q3AC-X96E-VGA8,BCYF-Quincy_CC_AP1,"BPS-Quincy_Elem_232, 885 Washington Street, Boston, MA 02111",42.34835,-71.06449,"['BCYF', 'BCYF-Grant', 'Inside']",2024/04/02 07:56:08+00,1,BCYF,,Inside,,248
249,-71.0492968,42.2943449,N_601230550253962329,BCYF Indoor,Q2JD-XRN5-6G22,BCYF-Murphy-AP2,"One Worrell Street, Dorchester, MA - Admin office B 123",42.2943449,-71.0492968,"['BCYF', 'BCYF-Grant', 'Dorchester', 'Inside', 'Murphy']",2024/04/02 07:56:08+00,1,BCYF,,Inside,Dorchester Murphy,249
250,-71.1150811714723,42.3088370155248,N_601230550253962329,BCYF Indoor,Q2JD-XRZM-K84X,BCYF-Curtis-Hall-AP3,"20 South Street, Jamaica Plain, MA - Room 108 supervisor",42.3088370155248,-71.1150811714723,"['BCYF', 'BCYF-Grant', 'Curtis', 'Inside', 'Jamaica-Plain']",2024/04/02 07:56:08+00,1,BCYF,,Inside,Curtis Jamaica Plain,250
251,-71.0492968,42.2943449,N_601230550253962329,BCYF Indoor,Q2JD-WG4P-EVHX,BCYF-Murphy-AP1,"One Worrell St., Dorchester, MA -  inside lobby reception desk",42.2943449,-71.0492968,"['BCYF', 'BCYF-Grant', 'Dorchester', 'Inside', 'Murphy']",2024/04/02 07:56:08+00,1,BCYF,,Inside,Dorchester Murphy,251
252,,,L_601230550253963852,Mobile WiFi Kit 4,Q3AK-VU6H-QY3R,MR76-4,,,,[],2024/04/02 07:55:57+00,1,,,,,252
253,-71.0767074541993,42.3268107188774,N_579275502070532581,Roxbury,Q2CK-MP2Y-FAUQ,ROX-VINE-AP2,"339 Dudley St, Roxbury",42.3268107188774,-71.0767074541993,['recently-added'],2024/04/02 07:56:03+00,1,,,,,253
254,-71.0767074541993,42.3268107188774,N_579275502070532581,Roxbury,Q2CK-NJTU-PZA7,ROX-VINE-AP4,"339 Dudley St, Roxbury",42.3268107188774,-71.0767074541993,['recently-added'],2024/04/02 07:56:03+00,1,,,,,254
255,-71.0381805853654,42.3722786763649,N_601230550253961436,East Boston,Q2CK-NPNU-ZQAD,EB-10GOVE-AP1,"10 Gove St, Boston, MA 02128, USA",42.3722786763649,-71.0381805853654,"['E-Boston-Main-Street', 'June2016', 'Outside', 'Private-residence']",2024/04/02 07:56:05+00,1,,,,E Boston Main Street June2016 Outside Private residence,255
256,-71.09818,42.33219,N_601230550253961587,BCYF Tremont,Q3AK-EDQ7-X7P4,AgeStrong-1stFL-Tremont-AP1,"1481 Tremont St, Boston, MA",42.33219,-71.09818,['employee'],2024/04/02 07:56:06+00,1,,,,employee,256
257,-71.098108291626,42.3321183079306,N_601230550253961587,BCYF Tremont,Q2FD-6DML-BCZE,BCYF-CC Lobby,"1483 Tremont St Boston, MA",42.3321183079306,-71.098108291626,"['BCYF', 'Inside', 'employee']",2024/04/02 07:56:06+00,1,BCYF,,Inside,employee,257
258,-71.1040894429907,42.2758153108873,N_601230550253962329,BCYF Indoor,Q3AC-SCN9-EVWL,BCYF-Mattahunt-AP3,"100 Hebron St, Mattapan, MA 02126",42.2758153108873,-71.1040894429907,['BCYF'],2024/04/02 07:56:08+00,1,BCYF,,,,258
259,-71.1149464,42.3088574,N_601230550253962329,BCYF Indoor,Q2JD-VG9W-FPTX,BCYF-Curtis-Hall-AP1,"20 South Street, Jamaica Plain - room 204 Senior Center
Asset tag #701689",42.3088574,-71.1149464,"['BCYF', 'BCYF-Grant', 'Curtis', 'Inside', 'Jamaica-Plain']",2024/04/02 07:56:08+00,1,BCYF,,Inside,Curtis Jamaica Plain,259
260,-71.1149464,42.3088574,N_601230550253962329,BCYF Indoor,Q2JD-XS34-CU2K,BCYF-Curtis-Hall-AP2,"20 South Street, Jamaica Plain - Room 217 teen room",42.3088574,-71.1149464,"['BCYF', 'BCYF-Grant', 'Curtis', 'Inside', 'Jamaica-Plain']",2024/04/02 07:56:08+00,1,BCYF,,Inside,Curtis Jamaica Plain,260
261,-71.0901645617862,42.3224337457746,N_601230550253962329,BCYF Indoor,Q2JD-VSFG-ZKNW,BCYF-Shelbourne-AP2,"2730 Washington St, Roxbury, MA - Game room (Teen room)",42.3224337457746,-71.0901645617862,"['BCYF', 'BCYF-Grant', 'Inside', 'Roxbury', 'Shelburne']",2024/04/02 07:56:08+00,1,BCYF,,Inside,Roxbury Shelburne,261
262,-71.0610705944453,42.3801186758107,N_601230550253962329,BCYF Indoor,Q2JD-UTKP-YWHB,BCYF-Charlestown-AP1,"240 Medford St., Charlestown, MA - meeting room",42.3801186758107,-71.0610705944453,"['BCYF', 'BCYF-Grant', 'Charlestown', 'Inside']",2024/04/02 07:56:08+00,1,BCYF,,Inside,Charlestown,262
263,-71.0610705944453,42.3801186758107,N_601230550253962329,BCYF Indoor,Q2JD-VTCK-Y2SH,BCYF-Charlestown-AP2,"240 Medford St., Charlestown, MA - Admin office",42.3801186758107,-71.0610705944453,"['BCYF', 'BCYF-Grant', 'Charlestown', 'Inside']",2024/04/02 07:56:08+00,1,BCYF,,Inside,Charlestown,263
264,-71.0908452,42.3320631,N_601230550253962329,BCYF Indoor,Q2JD-XRRZ-NCRG,BCYF-Madison-AP1,"75 Malcolm X Blvd. Roxbury, MA - Admin office",42.3320631,-71.0908452,"['BCYF', 'BCYF-Grant', 'Inside', 'Madison-Park', 'Roxbury']",2024/04/02 07:56:08+00,1,BCYF,,Inside,Madison Park Roxbury,264
265,-71.1277009143321,42.2865140418411,N_601230550253962329,BCYF Indoor,Q2JD-URL9-7FSE,BCYF-Roslindale-AP2,"6 Cummins Highway, Roslindale, MA - Room 108 after school room",42.2865140418411,-71.1277009143321,"['BCYF', 'BCYF-Grant', 'Inside', 'Roslindale']",2024/04/02 07:56:08+00,1,BCYF,,Inside,Roslindale,265
266,-71.1277009143321,42.2865140418411,N_601230550253962329,BCYF Indoor,Q2JD-XNJC-E9DV,BCYF-Roslindale-AP1,"6 Cummins Highway, Roslindale, MA - Meeting room",42.2865140418411,-71.1277009143321,"['BCYF', 'BCYF-Grant', 'Inside', 'Roslindale']",2024/04/02 07:56:08+00,1,BCYF,,Inside,Roslindale,266
267,-71.07677,42.32673,N_601230550253962329,BCYF Indoor,Q2LD-54N8-9YC9,BCYF-Vine Street-Senior Room 222 AP2,"339 Dudley Street. Boston, MA",42.32673,-71.07677,[],2024/04/02 07:56:08+00,1,,,,,267
268,-71.07677,42.32673,N_601230550253962329,BCYF Indoor,Q2LD-TEW9-ABKD,BCYF-Vine Street-Art Room 122,"339 Dudley Street. Boston, MA",42.32673,-71.07677,[],2024/04/02 07:56:08+00,1,,,,,268
269,-71.07677,42.32673,N_601230550253962329,BCYF Indoor,Q2LD-VVDJ-5Z5M,BCYF-Vine Street-Room 123,"339 Dudley Street. Boston, MA",42.32673,-71.07677,[],2024/04/02 07:56:08+00,1,,,,,269
270,-71.07677,42.32673,N_601230550253962329,BCYF Indoor,Q2LD-DUHQ-HF7B,BCYF-Vine Street-Computer room 205,"339 Dudley Street. Boston, MA",42.32673,-71.07677,[],2024/04/02 07:56:08+00,1,,,,,270
271,-71.07677,42.32673,N_601230550253962329,BCYF Indoor,Q2LD-6MR4-Y7UM,BCYF-Vine Street-Room 107,"339 Dudley Street. Boston, MA",42.32673,-71.07677,[],2024/04/02 07:56:08+00,1,,,,,271
272,-71.07677,42.32673,N_601230550253962329,BCYF Indoor,Q2LD-GHSY-3U4C,BCYF-Vine Street-Dance Studio 209 left,"339 Dudley Street. Boston, MA",42.32673,-71.07677,[],2024/04/02 07:56:08+00,1,,,,,272
273,-71.1144214275456,42.3105749822276,N_601230550253962845,Jamaica Plain,Q2CK-NER6-DHDA,JP-BFDE28-AP1,"746 Centre Street, Jamaica Plain",42.3105749822276,-71.1144214275456,['recently-added'],2024/04/02 07:56:09+00,1,,,,,273
274,-71.1150811714723,42.3088370155248,N_601230550253962845,Jamaica Plain,Q2CK-SPCX-L9G6,JP-Curtis Hall-BCYF-AP1,"20 South St, Jamaica Plain, MA 02130",42.3088370155248,-71.1150811714723,"['BCYF', 'BCYF-Grant', 'Curtis-Hall', 'Outside']",2024/04/02 07:56:09+00,1,BCYF,,,Curtis Hall Outside,274
275,-71.1158206063547,42.3079386624069,N_601230550253962845,Jamaica Plain,Q2CK-L8D3-H68P,JP-Curtis Hall-BCYF-AP3,"55 South St, Jamaica Plain",42.3079386624069,-71.1158206063547,"['Centre-South-Main-Street', 'Lightpole', 'Outside']",2024/04/02 07:56:09+00,1,,,,Centre South Main Street Lightpole Outside,275
276,-71.1150811714723,42.3088370155248,N_601230550253962845,Jamaica Plain,Q2CK-LHCB-ZA9D,JP-Curtis Hall-BCYF-AP2,"20 South St, Jamaica Plain, MA 02130",42.3088370155248,-71.1150811714723,"['BCYF', 'Centre-South-Main-Street', 'Curtis-Hall', 'Outside']",2024/04/02 07:56:09+00,1,BCYF,,,Centre South Main Street Curtis Hall Outside,276
277,-71.0659605900958,42.315958662778,N_601230550253965255,Strand Theatre - External,Q2QD-86JE-GS2B,Strand_Marquee support right,"543 Columbia Road
Boston, MA 02125",42.315958662778,-71.0659605900958,['Outside'],2024/04/02 07:56:09+00,1,,,,Outside,277
278,-71.0659605900958,42.315958662778,N_601230550253965255,Strand Theatre - External,Q2QD-42EC-LQ5Z,Strand_Marquee support left,"543 Columbia Road Boston, MA 02125",42.315958662778,-71.0659605900958,['Outside'],2024/04/02 07:56:09+00,1,,,,Outside,278
279,-71.0659605900958,42.315958662778,N_601230550253965255,Strand Theatre - External,Q2QD-428C-NVTB,Strand_Centered above external set of doors,"543 Columbia Road Boston, MA 02125",42.315958662778,-71.0659605900958,['Outside'],2024/04/02 07:56:09+00,1,,,,Outside,279
